[Satellite]
VERSION=1.1
NAME=COSMOS 2461 (735)
NICKNAME=COSMOS 2461 (735)
TLE1=1 36401U 10007B   20157.93418806 -.00000063  00000-0  10000-3 0  9990
TLE2=2 36401  65.8692  28.2476 0008958  62.8978 251.9626  2.13101876 79883
STATUS=0
